IRIDIUM 155             
1 43573U 18061E   24227.58909144  .00001202  00000+0  42206-3 0  9996
2 43573  86.4013 337.3527 0002077  88.4044 271.7390 14.34220114317091
IRIDIUM 154             
1 43574U 18061F   24227.57006851 -.00000388  00000+0 -14550-3 0  9996
2 43574  86.4016 337.4614 0002018  98.4773 261.6652 14.34219431317143
IRIDIUM 163             
1 43575U 18061G   24227.76033781  .00000348  00000+0  11711-3 0  9990
2 43575  86.4015 337.3179 0002333  96.7541 263.3920 14.34220382317146
IRIDIUM 156             
1 43576U 18061H   24227.59543430  .00000518  00000+0  17789-3 0  9999
2 43576  86.4013 337.3934 0001943  94.6813 265.4604 14.34222581317111
IRIDIUM 164             
1 43577U 18061J   24227.36710157  .00001411  00000+0  49678-3 0  9992
2 43577  86.4016 337.5184 0002113 102.7260 257.4172 14.34219385317121
IRIDIUM 159             
1 43578U 18061K   24227.54468946  .00001018  00000+0  35643-3 0  9999
2 43578  86.4011 337.3948 0002375  96.3216 263.8251 14.34216206317119
IRIDIUM 180             
1 43922U 19002A   24227.61395398  .00001364  00000+0  47994-3 0  9992
2 43922  86.3934 274.2325 0002251  95.7777 264.3675 14.34215117292737
IRIDIUM 176             
1 43923U 19002B   24227.57008300  .00003327  00000+0  52348-3 0  9992
2 43923  86.6064 274.2686 0002377 100.3741 259.7745 14.72266287300437
IRIDIUM 168             
1 43924U 19002C   24227.60762050  .00000653  00000+0  22613-3 0  9997
2 43924  86.3935 274.2941 0002274  97.0152 263.1302 14.34221641292712
IRIDIUM 173             
1 43925U 19002D   24227.59493290  .00000502  00000+0  17234-3 0  9999
2 43925  86.3930 274.2158 0002273  94.2470 265.8986 14.34222484292699
IRIDIUM 169             
1 43926U 19002E   24227.48254911  .00000225  00000+0  67182-4 0  9993
2 43926  86.4234 305.9017 0003886  69.8306 290.3310 14.38603246293655
IRIDIUM 172             
1 43927U 19002F   24227.58858986  .00000533  00000+0  18329-3 0  9997
2 43927  86.3931 274.2243 0002188  92.9288 267.2158 14.34222478292706
IRIDIUM 175             
1 43928U 19002G   24227.56459490  .00001336  00000+0  20801-3 0  9993
2 43928  86.1471 244.1113 0002490  87.5130 272.6372 14.72224756300428
IRIDIUM 171             
1 43929U 19002H   24227.56955939  .00000071  00000+0  18334-4 0  9997
2 43929  86.3943 274.4644 0002019  95.0244 265.1182 14.34216880292699
IRIDIUM 170             
1 43930U 19002J   24227.57627682  .00003248  00000+0  51097-3 0  9992
2 43930  86.6065 274.2712 0002338  95.2626 264.8858 14.72266079300449
IRIDIUM 167             
1 43931U 19002K   24227.56321934  .00000777  00000+0  27040-3 0  9998
2 43931  86.3932 274.2515 0002123  93.3165 266.8273 14.34228431292698
IRIDIUM 181             
1 56726U 23068S   24227.54092700  .00001746  00000+0  50982-3 0  9993
2 56726  86.8676 330.8397 0002165  90.3053 269.8396 14.43596859 65554
IRIDIUM 177             
1 56727U 23068T   24227.70053804  .00004277  00000+0  55867-3 0  9993
2 56727  86.1959 287.5798 0002123  94.8659 265.2804 14.80278424 67035
IRIDIUM 174             
1 56728U 23068U   24227.55992034  .00004184  00000+0  54647-3 0  9996
2 56728  86.1967 287.7549 0002188  90.0320 270.1152 14.80277840 67015
IRIDIUM 178             
1 56729U 23068V   24227.48686757  .00005998  00000+0  78456-3 0  9999
2 56729  86.5792 308.0231 0002171  89.3718 270.7752 14.80285943 67009
IRIDIUM 179             
1 56730U 23068W   24227.48144675  .00006669  00000+0  87245-3 0  9991
2 56730  86.6810 312.8952 0002281  94.6637 265.4845 14.80294942 67000
